INSAT-3E                
1 27951U 03043E   26116.62336431  .00000080  00000+0  00000+0 0  9994
2 27951   9.5907  54.5659 0014602 255.0286 306.8958  1.00795924 53285
ARIANE 5 DEB [SYLDA]    
1 27952U 03043F   26116.64987734  .00000291  00000+0  63376-2 0  9997
2 27952   7.7370 326.7768 7144860 119.6248 328.1075  2.26375517186291
BLOCK DM-SL R/B         
1 27953U 03044B   26117.00822192 -.00000121  00000+0  00000+0 0  9991
2 27953   0.9316 328.1131 6598105 293.4814  24.1474  2.14422393176737
GALAXY 13 (HORIZONS-1)  
1 27954U 03044A   26117.03472135  .00000123  00000+0  00000+0 0  9994
2 27954   1.2871  84.4613 0002205 314.6722  38.3979  1.00273581 46059
YAMAL 202               
1 28089U 03053A   26116.88575182 -.00000087  00000+0  00000+0 0  9992
2 28089   6.2149  71.5465 0003877 296.6615 329.1005  1.00271073 82189
YAMAL 201               
1 28094U 03053B   26116.86476997 -.00000079  00000+0  00000+0 0  9991
2 28094   9.4975  56.0609 0000051 197.8177 344.1787  1.00311541 84362
UFO 11 (USA 174)        
1 28117U 03057A   26116.89396483 -.00000111  00000+0  00000+0 0  9992
2 28117   8.9344  34.0784 0002718 347.4563 230.6117  1.00272084 81930
SL-12 R/B(2)            
1 28119U 03053E   26116.45948635 -.00000026  00000+0  00000+0 0  9999
2 28119  13.6379  13.7356 0219225 302.2975 252.3988  1.00056518 84203
FREGAT R/B              
1 28133U 03059B   26116.58134778 -.00000282  00000+0  00000+0 0  9994
2 28133  23.4466 268.6221 5934509 356.8388   0.4899  2.01474986164391
BLOCK DM-SL R/B         
1 28138U 04001B   26116.98991708 -.00000021  00000+0  95480-3 0  9996
2 28138   0.8242  10.7953 7134016 326.1576   2.9208  2.24740210183068
SL-12 R/B(2)            
1 28139U 03060D   26116.78927711  .00000075  00000+0  00000+0 0  9990
2 28139  13.5196  14.1233 0018160 236.4027 299.0235  1.00275595 81513
USA 149 DEB             
1 28156U 00024E   26097.43100446 -.00000008  00000+0  00000+0 0  9991
2 28156  13.6658  12.0000 0166245 347.0654  12.4831  0.99754675 23959
USA 176 (DSP 22)        
1 28158U 04004A   26117.19141821 -.00000288  00000+0  00000+0 0  9993
2 28158  11.9956  26.4487 0002070 303.5090 240.7546  1.00424064 32427
IUS R/B(2)              
1 28161U 04004D   26116.24748104 -.00000093  00000+0  00000+0 0  9993
2 28161  12.1070  26.6575 0004750  19.1106 340.8481  0.99812861 24879
ABS-4 (MOBISAT-1)       
1 28184U 04007A   26117.00516789  .00000032  00000+0  00000+0 0  9990
2 28184   5.9135  72.6159 0005442 326.0194 239.1963  1.00272956 51829
RADUGA-1 7              
1 28194U 04010A   26116.85870328  .00000115  00000+0  00000+0 0  9991
2 28194  13.6192  21.1721 0004720 247.6598 296.5929  1.00192551 80909
SUPERBIRD-A2            
1 28218U 04011A   26116.85748994  .00000046  00000+0  00000+0 0  9995
2 28218  13.4009  17.9897 0029554  39.3970 141.0006  0.99460847 79934
