[{"OBJECT_NAME":"INSAT-3E","OBJECT_ID":"2003-043E","EPOCH":"2026-04-26T14:57:38.676384","MEAN_MOTION":1.00795924,"ECCENTRICITY":0.0014602,"INCLINATION":9.5907,"RA_OF_ASC_NODE":54.5659,"ARG_OF_PERICENTER":255.0286,"MEAN_ANOMALY":306.8958,"EPHEMERIS_TYPE":0,"CLASSIFICATION_TYPE":"U","NORAD_CAT_ID":27951,"ELEMENT_SET_NO":999,"REV_AT_EPOCH":5328,"BSTAR":0,"MEAN_MOTION_DOT":8.0e-7,"MEAN_MOTION_DDOT":0},{"OBJECT_NAME":"ARIANE 5 DEB [SYLDA]","OBJECT_ID":"2003-043F","EPOCH":"2026-04-26T15:35:49.402176","MEAN_MOTION":2.26375517,"ECCENTRICITY":0.71448608,"INCLINATION":7.737,"RA_OF_ASC_NODE":326.7768,"ARG_OF_PERICENTER":119.6248,"MEAN_ANOMALY":328.1075,"EPHEMERIS_TYPE":0,"CLASSIFICATION_TYPE":"U","NORAD_CAT_ID":27952,"ELEMENT_SET_NO":999,"REV_AT_EPOCH":18629,"BSTAR":0.0063375833,"MEAN_MOTION_DOT":2.91e-6,"MEAN_MOTION_DDOT":0},{"OBJECT_NAME":"BLOCK DM-SL R/B","OBJECT_ID":"2003-044B","EPOCH":"2026-04-27T00:11:50.373888","MEAN_MOTION":2.14422393,"ECCENTRICITY":0.65981059,"INCLINATION":0.9316,"RA_OF_ASC_NODE":328.1131,"ARG_OF_PERICENTER":293.4814,"MEAN_ANOMALY":24.1474,"EPHEMERIS_TYPE":0,"CLASSIFICATION_TYPE":"U","NORAD_CAT_ID":27953,"ELEMENT_SET_NO":999,"REV_AT_EPOCH":17673,"BSTAR":0,"MEAN_MOTION_DOT":-1.21e-6,"MEAN_MOTION_DDOT":0},{"OBJECT_NAME":"GALAXY 13 (HORIZONS-1)","OBJECT_ID":"2003-044A","EPOCH":"2026-04-27T00:49:59.924640","MEAN_MOTION":1.00273581,"ECCENTRICITY":0.00022058,"INCLINATION":1.2871,"RA_OF_ASC_NODE":84.4613,"ARG_OF_PERICENTER":314.6722,"MEAN_ANOMALY":38.3979,"EPHEMERIS_TYPE":0,"CLASSIFICATION_TYPE":"U","NORAD_CAT_ID":27954,"ELEMENT_SET_NO":999,"REV_AT_EPOCH":4605,"BSTAR":0,"MEAN_MOTION_DOT":1.23e-6,"MEAN_MOTION_DDOT":0},{"OBJECT_NAME":"YAMAL 202","OBJECT_ID":"2003-053A","EPOCH":"2026-04-26T21:15:28.957248","MEAN_MOTION":1.00271073,"ECCENTRICITY":0.00038775,"INCLINATION":6.2149,"RA_OF_ASC_NODE":71.5465,"ARG_OF_PERICENTER":296.6615,"MEAN_ANOMALY":329.1005,"EPHEMERIS_TYPE":0,"CLASSIFICATION_TYPE":"U","NORAD_CAT_ID":28089,"ELEMENT_SET_NO":999,"REV_AT_EPOCH":8218,"BSTAR":0,"MEAN_MOTION_DOT":-8.7e-7,"MEAN_MOTION_DDOT":0},{"OBJECT_NAME":"YAMAL 201","OBJECT_ID":"2003-053B","EPOCH":"2026-04-26T20:45:16.125408","MEAN_MOTION":1.00311541,"ECCENTRICITY":5.1e-6,"INCLINATION":9.4975,"RA_OF_ASC_NODE":56.0609,"ARG_OF_PERICENTER":197.8177,"MEAN_ANOMALY":344.1787,"EPHEMERIS_TYPE":0,"CLASSIFICATION_TYPE":"U","NORAD_CAT_ID":28094,"ELEMENT_SET_NO":999,"REV_AT_EPOCH":8436,"BSTAR":0,"MEAN_MOTION_DOT":-7.9e-7,"MEAN_MOTION_DDOT":0},{"OBJECT_NAME":"UFO 11 (USA 174)","OBJECT_ID":"2003-057A","EPOCH":"2026-04-26T21:27:18.561312","MEAN_MOTION":1.00272084,"ECCENTRICITY":0.00027182,"INCLINATION":8.9344,"RA_OF_ASC_NODE":34.0784,"ARG_OF_PERICENTER":347.4563,"MEAN_ANOMALY":230.6117,"EPHEMERIS_TYPE":0,"CLASSIFICATION_TYPE":"U","NORAD_CAT_ID":28117,"ELEMENT_SET_NO":999,"REV_AT_EPOCH":8193,"BSTAR":0,"MEAN_MOTION_DOT":-1.11e-6,"MEAN_MOTION_DDOT":0},{"OBJECT_NAME":"SL-12 R/B(2)","OBJECT_ID":"2003-053E","EPOCH":"2026-04-26T11:01:39.620640","MEAN_MOTION":1.00056518,"ECCENTRICITY":0.0219225,"INCLINATION":13.6379,"RA_OF_ASC_NODE":13.7356,"ARG_OF_PERICENTER":302.2975,"MEAN_ANOMALY":252.3988,"EPHEMERIS_TYPE":0,"CLASSIFICATION_TYPE":"U","NORAD_CAT_ID":28119,"ELEMENT_SET_NO":999,"REV_AT_EPOCH":8420,"BSTAR":0,"MEAN_MOTION_DOT":-2.6e-7,"MEAN_MOTION_DDOT":0},{"OBJECT_NAME":"FREGAT R/B","OBJECT_ID":"2003-059B","EPOCH":"2026-04-26T13:57:08.448192","MEAN_MOTION":2.01474986,"ECCENTRICITY":0.59345096,"INCLINATION":23.4466,"RA_OF_ASC_NODE":268.6221,"ARG_OF_PERICENTER":356.8388,"MEAN_ANOMALY":0.4899,"EPHEMERIS_TYPE":0,"CLASSIFICATION_TYPE":"U","NORAD_CAT_ID":28133,"ELEMENT_SET_NO":999,"REV_AT_EPOCH":16439,"BSTAR":0,"MEAN_MOTION_DOT":-2.82e-6,"MEAN_MOTION_DDOT":0},{"OBJECT_NAME":"BLOCK DM-SL R/B","OBJECT_ID":"2004-001B","EPOCH":"2026-04-26T23:45:28.835712","MEAN_MOTION":2.2474021,"ECCENTRICITY":0.7134016,"INCLINATION":0.8242,"RA_OF_ASC_NODE":10.7953,"ARG_OF_PERICENTER":326.1576,"MEAN_ANOMALY":2.9208,"EPHEMERIS_TYPE":0,"CLASSIFICATION_TYPE":"U","NORAD_CAT_ID":28138,"ELEMENT_SET_NO":999,"REV_AT_EPOCH":18306,"BSTAR":0.00095479661,"MEAN_MOTION_DOT":-2.1e-7,"MEAN_MOTION_DDOT":0},{"OBJECT_NAME":"SL-12 R/B(2)","OBJECT_ID":"2003-060D","EPOCH":"2026-04-26T18:56:33.542304","MEAN_MOTION":1.00275595,"ECCENTRICITY":0.00181604,"INCLINATION":13.5196,"RA_OF_ASC_NODE":14.1233,"ARG_OF_PERICENTER":236.4027,"MEAN_ANOMALY":299.0235,"EPHEMERIS_TYPE":0,"CLASSIFICATION_TYPE":"U","NORAD_CAT_ID":28139,"ELEMENT_SET_NO":999,"REV_AT_EPOCH":8151,"BSTAR":0,"MEAN_MOTION_DOT":7.5e-7,"MEAN_MOTION_DDOT":0},{"OBJECT_NAME":"USA 149 DEB","OBJECT_ID":"2000-024E","EPOCH":"2026-04-07T10:20:38.785344","MEAN_MOTION":0.99754675,"ECCENTRICITY":0.0166245,"INCLINATION":13.6658,"RA_OF_ASC_NODE":12,"ARG_OF_PERICENTER":347.0654,"MEAN_ANOMALY":12.4831,"EPHEMERIS_TYPE":0,"CLASSIFICATION_TYPE":"U","NORAD_CAT_ID":28156,"ELEMENT_SET_NO":999,"REV_AT_EPOCH":2395,"BSTAR":0,"MEAN_MOTION_DOT":-8.0e-8,"MEAN_MOTION_DDOT":0},{"OBJECT_NAME":"USA 176 (DSP 22)","OBJECT_ID":"2004-004A","EPOCH":"2026-04-27T04:35:38.533344","MEAN_MOTION":1.00424064,"ECCENTRICITY":0.000207,"INCLINATION":11.9956,"RA_OF_ASC_NODE":26.4487,"ARG_OF_PERICENTER":303.509,"MEAN_ANOMALY":240.7546,"EPHEMERIS_TYPE":0,"CLASSIFICATION_TYPE":"U","NORAD_CAT_ID":28158,"ELEMENT_SET_NO":999,"REV_AT_EPOCH":3242,"BSTAR":0,"MEAN_MOTION_DOT":-2.88e-6,"MEAN_MOTION_DDOT":0},{"OBJECT_NAME":"IUS R/B(2)","OBJECT_ID":"2004-004D","EPOCH":"2026-04-26T05:56:22.361856","MEAN_MOTION":0.99812861,"ECCENTRICITY":0.00047503,"INCLINATION":12.107,"RA_OF_ASC_NODE":26.6575,"ARG_OF_PERICENTER":19.1106,"MEAN_ANOMALY":340.8481,"EPHEMERIS_TYPE":0,"CLASSIFICATION_TYPE":"U","NORAD_CAT_ID":28161,"ELEMENT_SET_NO":999,"REV_AT_EPOCH":2487,"BSTAR":0,"MEAN_MOTION_DOT":-9.3e-7,"MEAN_MOTION_DDOT":0},{"OBJECT_NAME":"ABS-4 (MOBISAT-1)","OBJECT_ID":"2004-007A","EPOCH":"2026-04-27T00:07:26.505696","MEAN_MOTION":1.00272956,"ECCENTRICITY":0.00054422,"INCLINATION":5.9135,"RA_OF_ASC_NODE":72.6159,"ARG_OF_PERICENTER":326.0194,"MEAN_ANOMALY":239.1963,"EPHEMERIS_TYPE":0,"CLASSIFICATION_TYPE":"U","NORAD_CAT_ID":28184,"ELEMENT_SET_NO":999,"REV_AT_EPOCH":5182,"BSTAR":0,"MEAN_MOTION_DOT":3.2e-7,"MEAN_MOTION_DDOT":0},{"OBJECT_NAME":"RADUGA-1 7","OBJECT_ID":"2004-010A","EPOCH":"2026-04-26T20:36:31.963392","MEAN_MOTION":1.00192551,"ECCENTRICITY":0.000472,"INCLINATION":13.6192,"RA_OF_ASC_NODE":21.1721,"ARG_OF_PERICENTER":247.6598,"MEAN_ANOMALY":296.5929,"EPHEMERIS_TYPE":0,"CLASSIFICATION_TYPE":"U","NORAD_CAT_ID":28194,"ELEMENT_SET_NO":999,"REV_AT_EPOCH":8090,"BSTAR":0,"MEAN_MOTION_DOT":1.15e-6,"MEAN_MOTION_DDOT":0},{"OBJECT_NAME":"SUPERBIRD-A2","OBJECT_ID":"2004-011A","EPOCH":"2026-04-26T20:34:47.130816","MEAN_MOTION":0.99460847,"ECCENTRICITY":0.0029554,"INCLINATION":13.4009,"RA_OF_ASC_NODE":17.9897,"ARG_OF_PERICENTER":39.397,"MEAN_ANOMALY":141.0006,"EPHEMERIS_TYPE":0,"CLASSIFICATION_TYPE":"U","NORAD_CAT_ID":28218,"ELEMENT_SET_NO":999,"REV_AT_EPOCH":7993,"BSTAR":0,"MEAN_MOTION_DOT":4.6e-7,"MEAN_MOTION_DDOT":0}]
